{"type":"FeatureCollection","features":[{"type":"Feature","properties":{"name":"Burundi","ISO3166-1-Alpha-3":"BDI","ISO3166-1-Alpha-2":"BI","iso2":"BI"},"geometry":{"type":"Polygon","coordinates":[[[30.5546,-2.400628],[30.521475,-2.442279],[30.508091,-2.463466],[30.47016,-2.55576],[30.461995,-2.58749],[30.457655,-2.598032],[30.448043,-2.610537],[30.424168,-2.633171],[30.416003,-2.645574],[30.412128,-2.670172],[30.423238,-2.680921],[30.442668,-2.681127],[30.463752,-2.674203],[30.499616,-2.657873],[30.52256,-2.649398],[30.516101,-2.668311],[30.458585,-2.72867],[30.450523,-2.741795],[30.447268,-2.757298],[30.446906,-2.782723],[30.425099,-2.812179],[30.413626,-2.8344],[30.415797,-2.851659],[30.440808,-2.884009],[30.456001,-2.898272],[30.474191,-2.903233],[30.469644,-2.914188],[30.484113,-2.930724],[30.488325,-2.94316],[30.513052,-2.913981],[30.524937,-2.904163],[30.53889,-2.898995],[30.61196,-2.939199],[30.62519,-2.94478],[30.634905,-2.970102],[30.650925,-2.977337],[30.661363,-2.974753],[30.683687,-2.969998],[30.695986,-2.974546],[30.718879,-2.989532],[30.732057,-2.99346],[30.755414,-2.991393],[30.80213,-2.97837],[30.825488,-2.978577],[30.818815,-2.990495],[30.78487,-3.031493],[30.778255,-3.04741],[30.783216,-3.062086],[30.807814,-3.085237],[30.817684,-3.099086],[30.813085,-3.11769],[30.815824,-3.131022],[30.828795,-3.140531],[30.833962,-3.160271],[30.832205,-3.172777],[30.823524,-3.196651],[30.809364,-3.216805],[30.814325,-3.24192],[30.799753,-3.274579],[30.775671,-3.291012],[30.747921,-3.294113],[30.721463,-3.280987],[30.718414,-3.292873],[30.702239,-3.307342],[30.68994,-3.308893],[30.662603,-3.319228],[30.640538,-3.33287],[30.621676,-3.35044],[30.603279,-3.372558],[30.640434,-3.392815],[30.639142,-3.41948],[30.612891,-3.444905],[30.565968,-3.466712],[30.552946,-3.482215],[30.538115,-3.49162],[30.511502,-3.497718],[30.508246,-3.50888],[30.48804,-3.512601],[30.46892,-3.513014],[30.462616,-3.527897],[30.432282,-3.551875],[30.426856,-3.563864],[30.429233,-3.583914],[30.428871,-3.602208],[30.421378,-3.620811],[30.38014,-3.685614],[30.373112,-3.703597],[30.371975,-3.722924],[30.376213,-3.739771],[30.381897,-3.75517],[30.384998,-3.770776],[30.381587,-3.788346],[30.33699,-3.773774],[30.31172,-3.789897],[30.273273,-3.856249],[30.22077,-3.909993],[30.208781,-3.930457],[30.191418,-4.002494],[30.175852,-4.039992],[30.149766,-4.08683],[30.119587,-4.12352],[30.051478,-4.180157],[30.041143,-4.19504],[30.015614,-4.256018],[30.003005,-4.271935],[29.980785,-4.28444],[29.970656,-4.292605],[29.936343,-4.312035],[29.900479,-4.345625],[29.847356,-4.370533],[29.821828,-4.37074],[29.810976,-4.365262],[29.80033,-4.363919],[29.784104,-4.37384],[29.780177,-4.393684],[29.757956,-4.410221],[29.747931,-4.430271],[29.747414,-4.44319],[29.744365,-4.454456],[29.732841,-4.463344],[29.687469,-4.458383],[29.638273,-4.446808],[29.404179,-4.449805],[29.37276,-4.208166],[29.367224,-4.189048],[29.33948,-4.093237],[29.277727,-3.988954],[29.239796,-3.948027],[29.224552,-3.926529],[29.215043,-3.899864],[29.206568,-3.781939],[29.217123,-3.709266],[29.22326,-3.66701],[29.225172,-3.588565],[29.206672,-3.334524],[29.208739,-3.305275],[29.213079,-3.291943],[29.236117,-3.270704],[29.223828,-3.252669],[29.216904,-3.233135],[29.214113,-3.166472],[29.217524,-3.146215],[29.225017,-3.129369],[29.237781,-3.122237],[29.242328,-3.110765],[29.234629,-3.046583],[29.225378,-3.031803],[29.211529,-3.021158],[29.194476,-3.014647],[29.175976,-3.012477],[29.156752,-3.004828],[29.148174,-2.986948],[29.144246,-2.966278],[29.138407,-2.950361],[29.123369,-2.940233],[29.105076,-2.934135],[29.08978,-2.926074],[29.083268,-2.910054],[29.081718,-2.893931],[29.062701,-2.862201],[29.053503,-2.835433],[29.034072,-2.82086],[29.013143,-2.818897],[28.994902,-2.813626],[28.986892,-2.796779],[28.988804,-2.775488],[28.995522,-2.758435],[29.008234,-2.74748],[29.028595,-2.744896],[29.015365,-2.720711],[29.032574,-2.620666],[29.05526,-2.598445],[29.113447,-2.594621],[29.129725,-2.596998],[29.190445,-2.623456],[29.212769,-2.630278],[29.254989,-2.635549],[29.276125,-2.640613],[29.294418,-2.651052],[29.306614,-2.660147],[29.306045,-2.67658],[29.309481,-2.690127],[29.331418,-2.71141],[29.337516,-2.723812],[29.335346,-2.735181],[29.321497,-2.752131],[29.318086,-2.762569],[29.32036,-2.774145],[29.329661,-2.794919],[29.33085,-2.807424],[29.339687,-2.826441],[29.364285,-2.824168],[29.407435,-2.805461],[29.425366,-2.803394],[29.444675,-2.806989],[29.480867,-2.813729],[29.504121,-2.826855],[29.523138,-2.820447],[29.541845,-2.808561],[29.563756,-2.805667],[29.574091,-2.806081],[29.589491,-2.798433],[29.619256,-2.787684],[29.637087,-2.791629],[29.678684,-2.805357],[29.697546,-2.808251],[29.719922,-2.805461],[29.733978,-2.790268],[29.737285,-2.769287],[29.756199,-2.759882],[29.778523,-2.7666],[29.803379,-2.767324],[29.823585,-2.763499],[29.842395,-2.752441],[29.862859,-2.731667],[29.876191,-2.71358],[29.888387,-2.692909],[29.897896,-2.671102],[29.90327,-2.649088],[29.903726,-2.637947],[29.907921,-2.5354],[29.929573,-2.459849],[29.92239,-2.382954],[29.928901,-2.331795],[29.931692,-2.316912],[29.941924,-2.316602],[29.956781,-2.327038],[29.976134,-2.34368],[29.992308,-2.34399],[30.013341,-2.348331],[30.025536,-2.357736],[30.056542,-2.394426],[30.072975,-2.408792],[30.093853,-2.422642],[30.116797,-2.43153],[30.139121,-2.430807],[30.156174,-2.419024],[30.20134,-2.362387],[30.203923,-2.345954],[30.219116,-2.340373],[30.250329,-2.355566],[30.262731,-2.358356],[30.278854,-2.357633],[30.297974,-2.353705],[30.316785,-2.347608],[30.331151,-2.340269],[30.344018,-2.328384],[30.352752,-2.316912],[30.37859,-2.303062],[30.415073,-2.313088],[30.428406,-2.331381],[30.488454,-2.383781],[30.521733,-2.399387],[30.5546,-2.400628]]]}}]}